STARLINK-2150           
1 47739U 21017T   26068.68481975  .00005343  00000+0  19237-3 0  9990
2 47739  53.1613 219.2475 0001333  94.6984 265.4169 15.30204508277682
NUSAT-48 (HENRIETTA LE*)
1 60498U 24149AG  26068.80506098  .00012988  00000+0  45212-3 0  9999
2 60498  97.3923 150.8264 0002754 263.3026  96.7901 15.29812597 86946
